{
    "links": {
        "self": "http://www.neowsapp.com/rest/v1/neo/3767263?api_key=iIulBulltgU6a56xZRHN4H3l9WmuAYTsLGpBGhQ2"
    },
    "id": "3767263",
    "neo_reference_id": "3767263",
    "name": "(2017 BM32)",
    "designation": "2017 BM32",
    "nasa_jpl_url": "http://ssd.jpl.nasa.gov/sbdb.cgi?sstr=3767263",
    "absolute_magnitude_h": 24.4,
    "estimated_diameter": {
        "kilometers": {
            "estimated_diameter_min": 0.0350392641,
            "estimated_diameter_max": 0.0783501764
        },
        "meters": {
            "estimated_diameter_min": 35.0392641108,
            "estimated_diameter_max": 78.3501764334
        },
        "miles": {
            "estimated_diameter_min": 0.0217723826,
            "estimated_diameter_max": 0.0486845275
        },
        "feet": {
            "estimated_diameter_min": 114.9582192654,
            "estimated_diameter_max": 257.0543928497
        }
    },
    "is_potentially_hazardous_asteroid": false,
    "close_approach_data": [
        {
            "close_approach_date": "1904-01-08",
            "close_approach_date_full": "1904-Jan-08 17:26",
            "epoch_date_close_approach": -2082177240000,
            "relative_velocity": {
                "kilometers_per_second": "4.8564114185",
                "kilometers_per_hour": "17483.0811066382",
                "miles_per_hour": "10863.3067020664"
            },
            "miss_distance": {
                "astronomical": "0.0964630462",
                "lunar": "37.5241249718",
                "kilometers": "14430666.245231594",
                "miles": "8966800.2087362372"
            },
            "orbiting_body": "Earth"
        },
        {
            "close_approach_date": "2011-12-29",
            "close_approach_date_full": "2011-Dec-29 16:31",
            "epoch_date_close_approach": 1325176260000,
            "relative_velocity": {
                "kilometers_per_second": "5.5388818915",
                "kilometers_per_hour": "19939.9748093694",
                "miles_per_hour": "12389.9249030773"
            },
            "miss_distance": {
                "astronomical": "0.155463194",
                "lunar": "60.475182466",
                "kilometers": "23256962.68579678",
                "miles": "14451206.501604364"
            },
            "orbiting_body": "Earth"
        },
        {
            "close_approach_date": "2017-01-20",
            "close_approach_date_full": "2017-Jan-20 03:29",
            "epoch_date_close_approach": 1484882940000,
            "relative_velocity": {
                "kilometers_per_second": "4.5603685436",
                "kilometers_per_hour": "16417.3267568178",
                "miles_per_hour": "10201.0883950905"
            },
            "miss_distance": {
                "astronomical": "0.0944287847",
                "lunar": "36.7327972483",
                "kilometers": "14126345.057808589",
                "miles": "8777703.7913889682"
            },
            "orbiting_body": "Earth"
        },
        {
            "close_approach_date": "2140-07-06",
            "close_approach_date_full": "2140-Jul-06 01:31",
            "epoch_date_close_approach": 5380824660000,
            "relative_velocity": {
                "kilometers_per_second": "5.4750459682",
                "kilometers_per_hour": "19710.1654856008",
                "miles_per_hour": "12247.1303263168"
            },
            "miss_distance": {
                "astronomical": "0.2423074886",
                "lunar": "94.2576130654",
                "kilometers": "36248684.179609282",
                "miles": "22523887.9026488116"
            },
            "orbiting_body": "Earth"
        }
    ],
    "orbital_data": {
        "orbit_id": "8",
        "orbit_determination_date": "2017-04-06 08:20:34",
        "first_observation_date": "2017-01-29",
        "last_observation_date": "2017-02-23",
        "data_arc_in_days": 25,
        "observations_used": 49,
        "orbit_uncertainty": "7",
        "minimum_orbit_intersection": ".082723",
        "jupiter_tisserand_invariant": "5.433",
        "epoch_osculation": "2459000.5",
        "eccentricity": ".0858682806637569",
        "semi_major_axis": "1.155102151652294",
        "inclination": "8.659825968683581",
        "ascending_node_longitude": "300.3122961965663",
        "orbital_period": "453.4495926773428",
        "perihelion_distance": "1.055915515898906",
        "perihelion_argument": "147.6326238155762",
        "aphelion_distance": "1.254288787405683",
        "perihelion_time": "2459097.602563529790",
        "mean_anomaly": "282.9089110780209",
        "mean_motion": ".7939140442809089",
        "equinox": "J2000",
        "orbit_class": {
            "orbit_class_type": "AMO",
            "orbit_class_description": "Near-Earth asteroid orbits similar to that of 1221 Amor",
            "orbit_class_range": "1.017 AU < q (perihelion) < 1.3 AU"
        }
    },
    "is_sentry_object": false
}